{
  "type": "FeatureCollection",
  "features": [
    {
      "type": "Feature",
      "geometry": {
        "type": "Point",
        "coordinates": [
          101.6573578,
          2.9377516
        ]
      },
      "properties": {
        "name": "AIMS",
        "operator": "",
        "address": "",
        "latitude": "2.9377516",
        "longitude": "101.6573578",
        "capacity_mw": null,
        "capacity_type": "",
        "capacity_source": "OpenStreetMap way/1080495340",
        "status": "under construction",
        "connection_voltage": "",
        "verification_status": "needs review",
        "last_updated": "2026-08-26",
        "report_url": ""
      }
    },
    {
      "type": "Feature",
      "geometry": {
        "type": "Point",
        "coordinates": [
          101.5791729,
          3.0905989
        ]
      },
      "properties": {
        "name": "Basis Bay",
        "operator": "",
        "address": "",
        "latitude": "3.0905989",
        "longitude": "101.5791729",
        "capacity_mw": null,
        "capacity_type": "",
        "capacity_source": "OpenStreetMap node/14004400718",
        "status": "",
        "connection_voltage": "",
        "verification_status": "needs review",
        "last_updated": "2026-08-26",
        "report_url": ""
      }
    },
    {
      "type": "Feature",
      "geometry": {
        "type": "Point",
        "coordinates": [
          103.5944364,
          1.4880951
        ]
      },
      "properties": {
        "name": "Gp3 Data Center",
        "operator": "",
        "address": "",
        "latitude": "1.4880951",
        "longitude": "103.5944364",
        "capacity_mw": null,
        "capacity_type": "",
        "capacity_source": "OpenStreetMap node/13854865053",
        "status": "",
        "connection_voltage": "",
        "verification_status": "needs review",
        "last_updated": "2026-08-26",
        "report_url": ""
      }
    },
    {
      "type": "Feature",
      "geometry": {
        "type": "Point",
        "coordinates": [
          110.3534142,
          1.7096888
        ]
      },
      "properties": {
        "name": "IRIX DC",
        "operator": "",
        "address": "Lot 727 Jalan Sultan Tengah, Santubong, 93010 Kuching",
        "latitude": "1.7096888",
        "longitude": "110.3534142",
        "capacity_mw": null,
        "capacity_type": "",
        "capacity_source": "OpenStreetMap node/13197364001",
        "status": "",
        "connection_voltage": "",
        "verification_status": "needs review",
        "last_updated": "2026-08-26",
        "report_url": ""
      }
    },
    {
      "type": "Feature",
      "geometry": {
        "type": "Point",
        "coordinates": [
          101.7293923,
          3.1743861
        ]
      },
      "properties": {
        "name": "MAF War Gaming Simulation Center",
        "operator": "",
        "address": "",
        "latitude": "3.1743861",
        "longitude": "101.7293923",
        "capacity_mw": null,
        "capacity_type": "",
        "capacity_source": "OpenStreetMap node/10939660647",
        "status": "",
        "connection_voltage": "",
        "verification_status": "needs review",
        "last_updated": "2026-08-26",
        "report_url": ""
      }
    },
    {
      "type": "Feature",
      "geometry": {
        "type": "Point",
        "coordinates": [
          101.6284258,
          3.0946929
        ]
      },
      "properties": {
        "name": "NEXTDC Kuala Lumpur Data Centre (KL1)",
        "operator": "NEXTDC Sdn Bhd",
        "address": "1 Jalan 51a/229, Seksyen 51A, 46100 Petaling Jaya, Selangor",
        "latitude": "3.0946929",
        "longitude": "101.6284258",
        "capacity_mw": 65.0,
        "capacity_type": "confirmed",
        "capacity_source": "OpenStreetMap way/1026603690 (capacity:electricity tag)",
        "status": "operating",
        "connection_voltage": "",
        "verification_status": "needs review",
        "last_updated": "2026-08-26",
        "report_url": ""
      }
    },
    {
      "type": "Feature",
      "geometry": {
        "type": "Point",
        "coordinates": [
          103.0913249,
          5.4057625
        ]
      },
      "properties": {
        "name": "Server Room B2",
        "operator": "",
        "address": "",
        "latitude": "5.4057625",
        "longitude": "103.0913249",
        "capacity_mw": null,
        "capacity_type": "",
        "capacity_source": "OpenStreetMap node/7001771562",
        "status": "",
        "connection_voltage": "",
        "verification_status": "needs review",
        "last_updated": "2026-08-26",
        "report_url": ""
      }
    },
    {
      "type": "Feature",
      "geometry": {
        "type": "Point",
        "coordinates": [
          101.6573189,
          2.9325346
        ]
      },
      "properties": {
        "name": "TMONE Klang Valley Data Center",
        "operator": "",
        "address": "",
        "latitude": "2.9325346",
        "longitude": "101.6573189",
        "capacity_mw": null,
        "capacity_type": "",
        "capacity_source": "OpenStreetMap way/848498975",
        "status": "",
        "connection_voltage": "",
        "verification_status": "needs review",
        "last_updated": "2026-08-26",
        "report_url": ""
      }
    },
    {
      "type": "Feature",
      "geometry": {
        "type": "Point",
        "coordinates": [
          103.4134036,
          1.7033833
        ]
      },
      "properties": {
        "name": "",
        "operator": "",
        "address": "",
        "latitude": "1.7033833",
        "longitude": "103.4134036",
        "capacity_mw": null,
        "capacity_type": "",
        "capacity_source": "OpenStreetMap way/1432337885",
        "status": "",
        "connection_voltage": "",
        "verification_status": "needs review",
        "last_updated": "2026-08-26",
        "report_url": ""
      }
    },
    {
      "type": "Feature",
      "geometry": {
        "type": "Point",
        "coordinates": [
          103.4190473,
          1.6939827
        ]
      },
      "properties": {
        "name": "",
        "operator": "",
        "address": "",
        "latitude": "1.6939827",
        "longitude": "103.4190473",
        "capacity_mw": null,
        "capacity_type": "",
        "capacity_source": "OpenStreetMap way/1432337898",
        "status": "",
        "connection_voltage": "",
        "verification_status": "needs review",
        "last_updated": "2026-08-26",
        "report_url": ""
      }
    },
    {
      "type": "Feature",
      "geometry": {
        "type": "Point",
        "coordinates": [
          103.4123772,
          1.6921349
        ]
      },
      "properties": {
        "name": "",
        "operator": "",
        "address": "",
        "latitude": "1.6921349",
        "longitude": "103.4123772",
        "capacity_mw": null,
        "capacity_type": "",
        "capacity_source": "OpenStreetMap way/1432337899",
        "status": "",
        "connection_voltage": "",
        "verification_status": "needs review",
        "last_updated": "2026-08-26",
        "report_url": ""
      }
    },
    {
      "type": "Feature",
      "geometry": {
        "type": "Point",
        "coordinates": [
          103.4179246,
          1.6930986
        ]
      },
      "properties": {
        "name": "",
        "operator": "",
        "address": "",
        "latitude": "1.6930986",
        "longitude": "103.4179246",
        "capacity_mw": null,
        "capacity_type": "",
        "capacity_source": "OpenStreetMap way/1432337900",
        "status": "",
        "connection_voltage": "",
        "verification_status": "needs review",
        "last_updated": "2026-08-26",
        "report_url": ""
      }
    },
    {
      "type": "Feature",
      "geometry": {
        "type": "Point",
        "coordinates": [
          103.417064,
          1.6923957
        ]
      },
      "properties": {
        "name": "",
        "operator": "",
        "address": "",
        "latitude": "1.6923957",
        "longitude": "103.417064",
        "capacity_mw": null,
        "capacity_type": "",
        "capacity_source": "OpenStreetMap way/1432337901",
        "status": "",
        "connection_voltage": "",
        "verification_status": "needs review",
        "last_updated": "2026-08-26",
        "report_url": ""
      }
    },
    {
      "type": "Feature",
      "geometry": {
        "type": "Point",
        "coordinates": [
          103.4117312,
          1.6977265
        ]
      },
      "properties": {
        "name": "",
        "operator": "",
        "address": "",
        "latitude": "1.6977265",
        "longitude": "103.4117312",
        "capacity_mw": null,
        "capacity_type": "",
        "capacity_source": "OpenStreetMap way/1432337902",
        "status": "",
        "connection_voltage": "",
        "verification_status": "needs review",
        "last_updated": "2026-08-26",
        "report_url": ""
      }
    },
    {
      "type": "Feature",
      "geometry": {
        "type": "Point",
        "coordinates": [
          103.4125333,
          1.6984869
        ]
      },
      "properties": {
        "name": "",
        "operator": "",
        "address": "",
        "latitude": "1.6984869",
        "longitude": "103.4125333",
        "capacity_mw": null,
        "capacity_type": "",
        "capacity_source": "OpenStreetMap way/1432337903",
        "status": "",
        "connection_voltage": "",
        "verification_status": "needs review",
        "last_updated": "2026-08-26",
        "report_url": ""
      }
    },
    {
      "type": "Feature",
      "geometry": {
        "type": "Point",
        "coordinates": [
          103.4128608,
          1.69994
        ]
      },
      "properties": {
        "name": "",
        "operator": "",
        "address": "",
        "latitude": "1.69994",
        "longitude": "103.4128608",
        "capacity_mw": null,
        "capacity_type": "",
        "capacity_source": "OpenStreetMap way/1432337904",
        "status": "",
        "connection_voltage": "",
        "verification_status": "needs review",
        "last_updated": "2026-08-26",
        "report_url": ""
      }
    },
    {
      "type": "Feature",
      "geometry": {
        "type": "Point",
        "coordinates": [
          103.4076651,
          1.6975615
        ]
      },
      "properties": {
        "name": "",
        "operator": "",
        "address": "",
        "latitude": "1.6975615",
        "longitude": "103.4076651",
        "capacity_mw": null,
        "capacity_type": "",
        "capacity_source": "OpenStreetMap way/1432337905",
        "status": "",
        "connection_voltage": "",
        "verification_status": "needs review",
        "last_updated": "2026-08-26",
        "report_url": ""
      }
    },
    {
      "type": "Feature",
      "geometry": {
        "type": "Point",
        "coordinates": [
          103.412434,
          1.7046043
        ]
      },
      "properties": {
        "name": "",
        "operator": "",
        "address": "",
        "latitude": "1.7046043",
        "longitude": "103.412434",
        "capacity_mw": null,
        "capacity_type": "",
        "capacity_source": "OpenStreetMap way/1432337908",
        "status": "",
        "connection_voltage": "",
        "verification_status": "needs review",
        "last_updated": "2026-08-26",
        "report_url": ""
      }
    },
    {
      "type": "Feature",
      "geometry": {
        "type": "Point",
        "coordinates": [
          103.4103001,
          1.7029916
        ]
      },
      "properties": {
        "name": "",
        "operator": "",
        "address": "",
        "latitude": "1.7029916",
        "longitude": "103.4103001",
        "capacity_mw": null,
        "capacity_type": "",
        "capacity_source": "OpenStreetMap way/1432337909",
        "status": "",
        "connection_voltage": "",
        "verification_status": "needs review",
        "last_updated": "2026-08-26",
        "report_url": ""
      }
    },
    {
      "type": "Feature",
      "geometry": {
        "type": "Point",
        "coordinates": [
          103.4089932,
          1.7019183
        ]
      },
      "properties": {
        "name": "",
        "operator": "",
        "address": "",
        "latitude": "1.7019183",
        "longitude": "103.4089932",
        "capacity_mw": null,
        "capacity_type": "",
        "capacity_source": "OpenStreetMap way/1432337910",
        "status": "",
        "connection_voltage": "",
        "verification_status": "needs review",
        "last_updated": "2026-08-26",
        "report_url": ""
      }
    },
    {
      "type": "Feature",
      "geometry": {
        "type": "Point",
        "coordinates": [
          103.4106934,
          1.6988159
        ]
      },
      "properties": {
        "name": "",
        "operator": "",
        "address": "",
        "latitude": "1.6988159",
        "longitude": "103.4106934",
        "capacity_mw": null,
        "capacity_type": "",
        "capacity_source": "OpenStreetMap way/1432337911",
        "status": "",
        "connection_voltage": "",
        "verification_status": "needs review",
        "last_updated": "2026-08-26",
        "report_url": ""
      }
    },
    {
      "type": "Feature",
      "geometry": {
        "type": "Point",
        "coordinates": [
          103.4208341,
          1.6942378
        ]
      },
      "properties": {
        "name": "",
        "operator": "",
        "address": "",
        "latitude": "1.6942378",
        "longitude": "103.4208341",
        "capacity_mw": null,
        "capacity_type": "",
        "capacity_source": "OpenStreetMap way/1432337912",
        "status": "",
        "connection_voltage": "",
        "verification_status": "needs review",
        "last_updated": "2026-08-26",
        "report_url": ""
      }
    },
    {
      "type": "Feature",
      "geometry": {
        "type": "Point",
        "coordinates": [
          101.5202934,
          3.2230752
        ]
      },
      "properties": {
        "name": "",
        "operator": "",
        "address": "",
        "latitude": "3.2230752",
        "longitude": "101.5202934",
        "capacity_mw": null,
        "capacity_type": "",
        "capacity_source": "OpenStreetMap way/1448536198",
        "status": "",
        "connection_voltage": "",
        "verification_status": "needs review",
        "last_updated": "2026-08-26",
        "report_url": ""
      }
    },
    {
      "type": "Feature",
      "geometry": {
        "type": "Point",
        "coordinates": [
          101.6723118,
          3.0601528
        ]
      },
      "properties": {
        "name": "",
        "operator": "",
        "address": "",
        "latitude": "3.0601528",
        "longitude": "101.6723118",
        "capacity_mw": null,
        "capacity_type": "",
        "capacity_source": "OpenStreetMap way/1509567732",
        "status": "",
        "connection_voltage": "",
        "verification_status": "needs review",
        "last_updated": "2026-08-26",
        "report_url": ""
      }
    }
  ]
}
